[{"OBJECT_NAME":"STARLINK-31082","OBJECT_ID":"2023-200T","EPOCH":"2025-10-12T23:07:29.155296","MEAN_MOTION":15.02546438,"ECCENTRICITY":0.0001319,"INCLINATION":43.0027,"RA_OF_ASC_NODE":252.8515,"ARG_OF_PERICENTER":261.4351,"MEAN_ANOMALY":98.6342,"EPHEMERIS_TYPE":0,"CLASSIFICATION_TYPE":"U","NORAD_CAT_ID":58606,"ELEMENT_SET_NO":999,"REV_AT_EPOCH":10137,"BSTAR":0.00014316694,"MEAN_MOTION_DOT":1.731e-5,"MEAN_MOTION_DDOT":0},{"OBJECT_NAME":"STARLINK-31069","OBJECT_ID":"2023-200U","EPOCH":"2025-10-12T14:59:16.751616","MEAN_MOTION":15.02537072,"ECCENTRICITY":0.00010403,"INCLINATION":43.0028,"RA_OF_ASC_NODE":254.6068,"ARG_OF_PERICENTER":276.1082,"MEAN_ANOMALY":83.9642,"EPHEMERIS_TYPE":0,"CLASSIFICATION_TYPE":"U","NORAD_CAT_ID":58607,"ELEMENT_SET_NO":999,"REV_AT_EPOCH":10132,"BSTAR":3.20186e-6,"MEAN_MOTION_DOT":-1.6e-6,"MEAN_MOTION_DDOT":0},{"OBJECT_NAME":"STARLINK-31067","OBJECT_ID":"2023-200V","EPOCH":"2025-10-13T05:16:02.689248","MEAN_MOTION":15.02536938,"ECCENTRICITY":0.00013165,"INCLINATION":43.0039,"RA_OF_ASC_NODE":251.331,"ARG_OF_PERICENTER":271.4391,"MEAN_ANOMALY":88.6301,"EPHEMERIS_TYPE":0,"CLASSIFICATION_TYPE":"U","NORAD_CAT_ID":58608,"ELEMENT_SET_NO":999,"REV_AT_EPOCH":10141,"BSTAR":3.6940296e-5,"MEAN_MOTION_DOT":2.95e-6,"MEAN_MOTION_DDOT":0},{"OBJECT_NAME":"STARLINK-31085","OBJECT_ID":"2023-200W","EPOCH":"2025-10-13T05:11:14.801856","MEAN_MOTION":15.02542436,"ECCENTRICITY":0.00012506,"INCLINATION":43.0042,"RA_OF_ASC_NODE":251.3069,"ARG_OF_PERICENTER":271.9762,"MEAN_ANOMALY":88.0938,"EPHEMERIS_TYPE":0,"CLASSIFICATION_TYPE":"U","NORAD_CAT_ID":58609,"ELEMENT_SET_NO":999,"REV_AT_EPOCH":10141,"BSTAR":-0.00018017269,"MEAN_MOTION_DOT":-2.637e-5,"MEAN_MOTION_DDOT":0},{"OBJECT_NAME":"STARLINK-31089","OBJECT_ID":"2023-200X","EPOCH":"2025-10-13T04:57:02.163456","MEAN_MOTION":15.02515032,"ECCENTRICITY":9.643e-5,"INCLINATION":43.0039,"RA_OF_ASC_NODE":252.0337,"ARG_OF_PERICENTER":279.3279,"MEAN_ANOMALY":80.7455,"EPHEMERIS_TYPE":0,"CLASSIFICATION_TYPE":"U","NORAD_CAT_ID":58610,"ELEMENT_SET_NO":999,"REV_AT_EPOCH":10140,"BSTAR":-9.9903005e-5,"MEAN_MOTION_DOT":-1.552e-5,"MEAN_MOTION_DDOT":0},{"OBJECT_NAME":"STARLINK-31061","OBJECT_ID":"2023-200Y","EPOCH":"2025-10-13T05:06:27.512352","MEAN_MOTION":15.02540564,"ECCENTRICITY":0.00010458,"INCLINATION":43.0057,"RA_OF_ASC_NODE":251.2829,"ARG_OF_PERICENTER":265.8109,"MEAN_ANOMALY":94.2614,"EPHEMERIS_TYPE":0,"CLASSIFICATION_TYPE":"U","NORAD_CAT_ID":58611,"ELEMENT_SET_NO":999,"REV_AT_EPOCH":10141,"BSTAR":-0.00014545423,"MEAN_MOTION_DOT":-2.168e-5,"MEAN_MOTION_DDOT":0},{"OBJECT_NAME":"STARLINK-31054","OBJECT_ID":"2023-203B","EPOCH":"2025-10-13T00:10:37.972416","MEAN_MOTION":15.27585188,"ECCENTRICITY":0.00018763,"INCLINATION":42.9988,"RA_OF_ASC_NODE":181.2657,"ARG_OF_PERICENTER":269.7038,"MEAN_ANOMALY":90.3599,"EPHEMERIS_TYPE":0,"CLASSIFICATION_TYPE":"U","NORAD_CAT_ID":58619,"ELEMENT_SET_NO":999,"REV_AT_EPOCH":10097,"BSTAR":-2.333959e-5,"MEAN_MOTION_DOT":-9.05e-6,"MEAN_MOTION_DDOT":0},{"OBJECT_NAME":"STARLINK-31134","OBJECT_ID":"2023-203D","EPOCH":"2025-10-12T18:25:28.534368","MEAN_MOTION":15.27578943,"ECCENTRICITY":9.112e-5,"INCLINATION":42.9997,"RA_OF_ASC_NODE":182.9126,"ARG_OF_PERICENTER":303.6953,"MEAN_ANOMALY":56.3811,"EPHEMERIS_TYPE":0,"CLASSIFICATION_TYPE":"U","NORAD_CAT_ID":58621,"ELEMENT_SET_NO":999,"REV_AT_EPOCH":10093,"BSTAR":0.0001695821,"MEAN_MOTION_DOT":4.407e-5,"MEAN_MOTION_DDOT":0},{"OBJECT_NAME":"STARLINK-31133","OBJECT_ID":"2023-203E","EPOCH":"2025-10-13T01:39:13.647744","MEAN_MOTION":15.27610566,"ECCENTRICITY":0.00014762,"INCLINATION":43.001,"RA_OF_ASC_NODE":180.8676,"ARG_OF_PERICENTER":265.5117,"MEAN_ANOMALY":94.5566,"EPHEMERIS_TYPE":0,"CLASSIFICATION_TYPE":"U","NORAD_CAT_ID":58622,"ELEMENT_SET_NO":999,"REV_AT_EPOCH":10098,"BSTAR":-6.6128332e-5,"MEAN_MOTION_DOT":-2.083e-5,"MEAN_MOTION_DDOT":0},{"OBJECT_NAME":"STARLINK-31068","OBJECT_ID":"2023-203F","EPOCH":"2025-10-12T23:59:32.106624","MEAN_MOTION":15.27583028,"ECCENTRICITY":0.00011574,"INCLINATION":42.9941,"RA_OF_ASC_NODE":181.2055,"ARG_OF_PERICENTER":283.3332,"MEAN_ANOMALY":76.739,"EPHEMERIS_TYPE":0,"CLASSIFICATION_TYPE":"U","NORAD_CAT_ID":58623,"ELEMENT_SET_NO":999,"REV_AT_EPOCH":10097,"BSTAR":2.3041841e-5,"MEAN_MOTION_DOT":3.72e-6,"MEAN_MOTION_DDOT":0},{"OBJECT_NAME":"STARLINK-31129","OBJECT_ID":"2023-203G","EPOCH":"2025-10-12T23:55:49.654272","MEAN_MOTION":15.27584223,"ECCENTRICITY":9.252e-5,"INCLINATION":42.9995,"RA_OF_ASC_NODE":181.1868,"ARG_OF_PERICENTER":293.6546,"MEAN_ANOMALY":66.4208,"EPHEMERIS_TYPE":0,"CLASSIFICATION_TYPE":"U","NORAD_CAT_ID":58624,"ELEMENT_SET_NO":999,"REV_AT_EPOCH":10097,"BSTAR":0.0001095176,"MEAN_MOTION_DOT":2.753e-5,"MEAN_MOTION_DDOT":0},{"OBJECT_NAME":"STARLINK-30774","OBJECT_ID":"2023-203H","EPOCH":"2025-10-12T23:50:17.044512","MEAN_MOTION":15.27582376,"ECCENTRICITY":0.00010691,"INCLINATION":42.9962,"RA_OF_ASC_NODE":181.155,"ARG_OF_PERICENTER":278.9655,"MEAN_ANOMALY":81.1075,"EPHEMERIS_TYPE":0,"CLASSIFICATION_TYPE":"U","NORAD_CAT_ID":58625,"ELEMENT_SET_NO":999,"REV_AT_EPOCH":10097,"BSTAR":9.3037473e-5,"MEAN_MOTION_DOT":2.299e-5,"MEAN_MOTION_DDOT":0},{"OBJECT_NAME":"STARLINK-31086","OBJECT_ID":"2023-203J","EPOCH":"2025-10-12T10:40:02.369568","MEAN_MOTION":15.27580493,"ECCENTRICITY":9.457e-5,"INCLINATION":43.0021,"RA_OF_ASC_NODE":183.927,"ARG_OF_PERICENTER":270.1623,"MEAN_ANOMALY":89.912,"EPHEMERIS_TYPE":0,"CLASSIFICATION_TYPE":"U","NORAD_CAT_ID":58626,"ELEMENT_SET_NO":999,"REV_AT_EPOCH":10089,"BSTAR":-3.7163921e-5,"MEAN_MOTION_DOT":-1.284e-5,"MEAN_MOTION_DDOT":0},{"OBJECT_NAME":"STARLINK-31065","OBJECT_ID":"2023-203K","EPOCH":"2025-10-12T23:29:55.621536","MEAN_MOTION":15.2759123,"ECCENTRICITY":0.00016602,"INCLINATION":43.0039,"RA_OF_ASC_NODE":181.0672,"ARG_OF_PERICENTER":274.1013,"MEAN_ANOMALY":85.9649,"EPHEMERIS_TYPE":0,"CLASSIFICATION_TYPE":"U","NORAD_CAT_ID":58627,"ELEMENT_SET_NO":999,"REV_AT_EPOCH":10097,"BSTAR":1.1914761e-5,"MEAN_MOTION_DOT":6.6e-7,"MEAN_MOTION_DDOT":0},{"OBJECT_NAME":"STARLINK-31092","OBJECT_ID":"2023-203L","EPOCH":"2025-10-12T23:44:44.140992","MEAN_MOTION":15.27579011,"ECCENTRICITY":0.00016947,"INCLINATION":43.0008,"RA_OF_ASC_NODE":181.128,"ARG_OF_PERICENTER":270.8163,"MEAN_ANOMALY":89.2495,"EPHEMERIS_TYPE":0,"CLASSIFICATION_TYPE":"U","NORAD_CAT_ID":58628,"ELEMENT_SET_NO":999,"REV_AT_EPOCH":10097,"BSTAR":8.2394392e-5,"MEAN_MOTION_DOT":2.006e-5,"MEAN_MOTION_DDOT":0},{"OBJECT_NAME":"STARLINK-31091","OBJECT_ID":"2023-203M","EPOCH":"2025-10-12T23:52:32.118816","MEAN_MOTION":15.25913274,"ECCENTRICITY":0.00016004,"INCLINATION":43.0004,"RA_OF_ASC_NODE":184.6214,"ARG_OF_PERICENTER":286.4995,"MEAN_ANOMALY":73.568,"EPHEMERIS_TYPE":0,"CLASSIFICATION_TYPE":"U","NORAD_CAT_ID":58629,"ELEMENT_SET_NO":999,"REV_AT_EPOCH":10093,"BSTAR":8.5184254e-5,"MEAN_MOTION_DOT":1.971e-5,"MEAN_MOTION_DDOT":0}]
