STARLINK-31082          
1 58606U 23200T   25285.96353189  .00001731  00000+0  14317-3 0  9998
2 58606  43.0027 252.8515 0001319 261.4351  98.6342 15.02546438101379
STARLINK-31069          
1 58607U 23200U   25285.62449944 -.00000160  00000+0  32019-5 0  9994
2 58607  43.0028 254.6068 0001040 276.1082  83.9642 15.02537072101328
STARLINK-31067          
1 58608U 23200V   25286.21947557  .00000295  00000+0  36940-4 0  9998
2 58608  43.0039 251.3310 0001316 271.4391  88.6301 15.02536938101416
STARLINK-31085          
1 58609U 23200W   25286.21614354 -.00002637  00000+0 -18017-3 0  9993
2 58609  43.0042 251.3069 0001250 271.9762  88.0938 15.02542436101416
STARLINK-31089          
1 58610U 23200X   25286.20627504 -.00001552  00000+0 -99903-4 0  9994
2 58610  43.0039 252.0337 0000964 279.3279  80.7455 15.02515032101400
STARLINK-31061          
1 58611U 23200Y   25286.21281843 -.00002168  00000+0 -14545-3 0  9990
2 58611  43.0057 251.2829 0001045 265.8109  94.2614 15.02540564101417
STARLINK-31054          
1 58619U 23203B   25286.00738394 -.00000905  00000+0 -23340-4 0  9997
2 58619  42.9988 181.2657 0001876 269.7038  90.3599 15.27585188100970
STARLINK-31134          
1 58621U 23203D   25285.76769137  .00004407  00000+0  16958-3 0  9996
2 58621  42.9997 182.9126 0000911 303.6953  56.3811 15.27578943100931
STARLINK-31133          
1 58622U 23203E   25286.06890796 -.00002083  00000+0 -66128-4 0  9992
2 58622  43.0010 180.8676 0001476 265.5117  94.5566 15.27610566100986
STARLINK-31068          
1 58623U 23203F   25285.99967716  .00000372  00000+0  23042-4 0  9996
2 58623  42.9941 181.2055 0001157 283.3332  76.7390 15.27583028100975
STARLINK-31129          
1 58624U 23203G   25285.99710248  .00002753  00000+0  10952-3 0  9993
2 58624  42.9995 181.1868 0000925 293.6546  66.4208 15.27584223100971
STARLINK-30774          
1 58625U 23203H   25285.99325283  .00002299  00000+0  93037-4 0  9996
2 58625  42.9962 181.1550 0001069 278.9655  81.1075 15.27582376100974
STARLINK-31086          
1 58626U 23203J   25285.44447187 -.00001284  00000+0 -37164-4 0  9999
2 58626  43.0021 183.9270 0000945 270.1623  89.9120 15.27580493100899
STARLINK-31065          
1 58627U 23203K   25285.97911599  .00000066  00000+0  11915-4 0  9992
2 58627  43.0039 181.0672 0001660 274.1013  85.9649 15.27591230100978
STARLINK-31092          
1 58628U 23203L   25285.98939978  .00002006  00000+0  82394-4 0  9990
2 58628  43.0008 181.1280 0001694 270.8163  89.2495 15.27579011100976
STARLINK-31091          
1 58629U 23203M   25285.99481619  .00001971  00000+0  85184-4 0  9996
2 58629  43.0004 184.6214 0001600 286.4995  73.5680 15.25913274100930
